{"spkid": "50842893", "covariance": {"epoch": "2458457.5", "labels": ["e", "q", "tp", "node", "peri", "i"], "elements": [{"sigma": 2.81651197498195e-08, "name": "e", "units": null, "title": "eccentricity", "value": ".307120450632462", "label": "e"}, {"label": "q", "value": "1.012206104576658", "title": "perihelion distance", "units": "au", "sigma": 4.62505981620934e-08, "name": "q"}, {"units": "TDB", "value": "2458737.044452562215", "title": "time of perihelion passage", "name": "tp", "sigma": 1.02135902621931e-05, "label": "tp"}, {"value": "270.0696369407748", "title": "longitude of the ascending node", "units": "deg", "name": "om", "sigma": 5.15874317997584e-05, "label": "node"}, {"label": "peri", "title": "argument of perihelion", "value": "68.57575506293203", "units": "deg", "name": "w", "sigma": 5.32868970430236e-05}, {"label": "i", "sigma": 2.51390103762338e-06, "name": "i", "units": "deg", "title": "inclination", "value": "2.939064256248842"}], "data": [["7.932739705216747E-16", "-1.241425381087474E-15", "1.703534097029765E-13", "-8.358606177989968E-14", "2.743514060586267E-13", "-3.880667320014901E-14"], ["-1.241425381087474E-15", "2.139117830351435E-15", "-3.311988126112289E-13", "1.454110269668442E-13", "-5.168504602424686E-13", "6.935991702175282E-14"], ["1.703534097029765E-13", "-3.311988126112289E-13", "1.043174260439664E-10", "-3.823258214379273E-11", "1.45141453576289E-10", "-1.074148015506212E-11"], ["-8.358606177989968E-14", "1.454110269668442E-13", "-3.823258214379273E-11", "2.661263119694722E-9", "-2.692836821820247E-9", "-3.488538220886334E-11"], ["2.743514060586267E-13", "-5.168504602424686E-13", "1.45141453576289E-10", "-2.692836821820247E-9", "2.839493396473801E-9", "2.131611551374636E-11"], ["-3.880667320014901E-14", "6.935991702175282E-14", "-1.074148015506212E-11", "-3.488538220886334E-11", "2.131611551374636E-11", "6.319698426963893E-12"]]}, "elements": [{"label": "e", "units": null, "value": ".3076601409399823", "title": "eccentricity", "name": "e", "sigma": "2.8293E-8"}, {"sigma": "2.0265E-8", "name": "a", "units": "au", "title": "semi-major axis", "value": "1.461893882784194", "label": "a"}, {"units": "au", "value": "1.012127404767511", "title": "perihelion distance", "sigma": "4.6074E-8", "name": "q", "label": "q"}, {"units": "deg", "title": "inclination; angle with respect to x-y ecliptic plane", "value": "2.938987156951594", "sigma": "2.5136E-6", "name": "i", "label": "i"}, {"label": "node", "sigma": "5.1577E-5", "name": "om", "title": "longitude of the ascending node", "value": "269.9642245116576", "units": "deg"}, {"label": "peri", "name": "w", "sigma": "5.3292E-5", "units": "deg", "value": "68.69542477712599", "title": "argument of perihelion"}, {"units": "deg", "title": "mean anomaly", "value": "293.5732521059438", "name": "ma", "sigma": "2.5964E-5", "label": "M"}, {"units": "TDB", "title": "time of perihelion passage", "value": "2461319.627681696435", "name": "tp", "sigma": "4.9001E-5", "label": "tp"}, {"label": "period", "units": "d", "title": "sidereal orbital period", "value": "645.6129009825275", "sigma": "1.3424E-5", "name": "per"}, {"value": ".5576096751662384", "title": "mean motion", "units": "deg/d", "name": "n", "sigma": "1.1594E-8", "label": "n"}, {"title": "aphelion distance", "value": "1.911660360800877", "units": "au", "sigma": "2.6499E-8", "name": "ad", "label": "Q"}], "epoch": "2461200.5"}